QIANFAN-1               
1 60379U 24140A   25342.91533764  .00000138  00000+0  19537-3 0  9999
2 60379  88.9755 299.6760 0015843 222.4770 137.5156 13.50977120 66839
QIANFAN-2               
1 60380U 24140B   25342.94434388  .00000122  00000+0  16999-3 0  9998
2 60380  88.9742 299.5129 0011868 190.1823 169.9090 13.50980714 66893
QIANFAN-3               
1 60381U 24140C   25342.95250955  .00000125  00000+0  17450-3 0  9992
2 60381  88.9734 299.6449 0012622 204.4746 155.5807 13.50981251 66808
QIANFAN-4               
1 60382U 24140D   25342.92768932  .00000119  00000+0  16499-3 0  9994
2 60382  88.9759 299.5442 0012014 193.2137 166.8701 13.50981439 66921
QIANFAN-5               
1 60383U 24140E   25342.90312612  .00000121  00000+0  16894-3 0  9995
2 60383  88.9734 299.6755 0013612 217.5958 142.4243 13.50978933 66789
QIANFAN-6               
1 60384U 24140F   25342.92372086  .00000124  00000+0  17347-3 0  9996
2 60384  88.9760 299.4185 0011967 199.6802 160.3888 13.50979409 66988
QIANFAN-7               
1 60385U 24140G   25342.88972993  .00001020  00000+0  40788-3 0  9996
2 60385  88.9777 294.1730 0017195  56.9111 303.3732 14.27640422 69842
QIANFAN-8               
1 60386U 24140H   25342.93197303  .00000119  00000+0  16588-3 0  9996
2 60386  88.9762 299.6551 0015339 203.6467 156.3981 13.50977338 66833
